GLOBALSTAR M063         
1 26081U 00008A   25091.33239314 -.00000057  00000+0  37774-3 0  9993
2 26081  51.9965 313.9834 0004810 159.3680  11.1483 11.86167773148457
GLOBALSTAR M060         
1 26083U 00008C   25091.25530074 -.00000007  00000+0  83936-3 0  9999
2 26083  52.0010 271.1410 0002670 341.1081 190.1934 12.17658021142993
GLOBALSTAR M064         
1 26084U 00008D   25091.27650990 -.00000087  00000+0 -56129-4 0  9996
2 26084  52.0041  53.8577 0001249 277.6865  82.3826 11.88532032157955
GLOBALSTAR M065         
1 31571U 07020A   25091.42148735 -.00000050  00000+0  30156-3 0  9990
2 31571  51.9874  99.9171 0010470 136.5578  16.1950 12.62003685823712
GLOBALSTAR M069         
1 31573U 07020C   25091.38310400 -.00000098  00000+0  11693-5 0  9996
2 31573  51.9949  68.0128 0000642  22.7961 133.2088 12.42143505824626
GLOBALSTAR M072         
1 31574U 07020D   25091.58400606 -.00000095  00000+0 -15505-3 0  9999
2 31574  52.0144 195.9019 0001736 179.2993 194.1165 11.91777001822338
GLOBALSTAR M071         
1 31576U 07020F   25091.35244124 -.00000161  00000+0 -68821-3 0  9990
2 31576  52.0050  86.1264 0000677 316.6429 190.7638 12.18251358485573
